OBJECT_NAME,OBJECT_ID,EPOCH,MEAN_MOTION,ECCENTRICITY,INCLINATION,RA_OF_ASC_NODE,ARG_OF_PERICENTER,MEAN_ANOMALY,EPHEMERIS_TYPE,CLASSIFICATION_TYPE,NORAD_CAT_ID,ELEMENT_SET_NO,REV_AT_EPOCH,BSTAR,MEAN_MOTION_DOT,MEAN_MOTION_DDOT
STARLINK-33605,2025-035Y,2026-07-17T03:59:57.726240,15.27582345,.0001602,43.0011,135.6740,268.4718,91.5950,0,U,63074,999,7952,.43797E-3,.1181E-3,0
STARLINK-32839,2025-037A,2026-07-16T16:40:56.421408,14.98337414,.0002743,70.0013,29.2760,266.5021,93.5824,0,U,63077,999,7791,.21738E-3,.2502E-4,0
STARLINK-32821,2025-037B,2026-07-16T16:40:41.430144,14.98335088,.0002518,70.0013,29.2721,269.8008,90.2862,0,U,63078,999,7790,.20556E-3,.2361E-4,0
STARLINK-32817,2025-037C,2026-07-16T20:47:01.089312,14.98332071,.0002802,70.0008,28.6603,267.5099,92.5740,0,U,63079,999,7794,.13227E-3,.1486E-4,0
STARLINK-32906,2025-037D,2026-07-16T23:29:30.689952,14.98335189,.000172,70.0008,28.6528,257.9629,102.1337,0,U,63080,999,7796,.13021E-3,.1461E-4,0
STARLINK-32895,2025-037E,2026-07-16T23:23:15.595584,14.98335249,.0002745,70.0010,28.6438,269.0806,91.0039,0,U,63081,999,7782,.163E-3,.1853E-4,0
STARLINK-32933,2025-037F,2026-07-16T21:11:18.856032,14.98330101,.0002833,70.0011,28.7184,264.7298,95.3537,0,U,63082,999,7789,.16789E-3,.1911E-4,0
STARLINK-32932,2025-037G,2026-07-17T03:41:36.783744,14.98343503,.0003249,70.0007,28.0657,266.2521,93.8266,0,U,63083,999,7785,.21064E-3,.2422E-4,0
STARLINK-32908,2025-037H,2026-07-16T16:16:39.055584,14.98332912,.0002654,70.0010,29.2104,264.2498,95.8358,0,U,63084,999,7778,.15962E-3,.1812E-4,0
STARLINK-32505,2025-037J,2026-07-16T23:23:29.922432,14.98335044,.0002549,70.0005,28.6398,264.7135,95.3733,0,U,63085,999,7791,.16214E-3,.1842E-4,0
STARLINK-32914,2025-037K,2026-07-16T21:11:03.743808,14.98333287,.000255,70.0009,28.7178,267.2972,92.7896,0,U,63086,999,7795,.13735E-3,.1546E-4,0
STARLINK-32918,2025-037L,2026-07-16T16:46:41.286144,14.98335673,.0002312,70.0013,29.2854,275.2750,84.8145,0,U,63087,999,7801,.24721E-5,-.63E-6,0
STARLINK-32912,2025-037M,2026-07-16T17:16:57.539424,14.98331183,.0002346,70.0010,28.9598,259.7991,100.2903,0,U,63088,999,7803,.91325E-4,.997E-5,0
STARLINK-32910,2025-037N,2026-07-16T16:28:54.413760,14.98339007,.0002836,70.0009,29.2384,263.1609,96.9228,0,U,63089,999,7792,.1266E-3,.1418E-4,0
STARLINK-32903,2025-037P,2026-07-16T23:35:14.522208,14.98334772,.0002244,70.0008,28.2731,267.9356,92.1546,0,U,63090,999,7783,.13739E-3,.1547E-4,0
STARLINK-32925,2025-037Q,2026-07-16T23:41:15.334656,14.98332649,.0002588,70.0009,28.2828,261.4110,98.6756,0,U,63091,999,7791,.12247E-3,.1369E-4,0
STARLINK-32924,2025-037R,2026-07-16T17:28:44.514336,14.98330899,.0002259,70.0010,28.9875,264.3648,95.7254,0,U,63092,999,7793,.11838E-3,.132E-4,0
STARLINK-32900,2025-037S,2026-07-16T22:35:10.353120,14.98334003,.0003057,70.0009,28.5241,265.4103,94.6707,0,U,63093,999,7782,.17013E-3,.1938E-4,0
STARLINK-32927,2025-037T,2026-07-16T16:52:42.539232,14.98340875,.0003407,70.0015,29.3054,270.3646,89.7122,0,U,63094,999,7787,.83915E-4,.909E-5,0
STARLINK-32907,2025-037U,2026-07-16T16:34:40.850112,14.98334449,.0003052,69.9994,29.2539,272.2511,87.8299,0,U,63095,999,7787,-.13381E-3,-.1689E-4,0
STARLINK-32911,2025-037V,2026-07-16T23:29:16.302624,14.98334679,.0001526,70.0009,28.6533,270.5410,89.5574,0,U,63096,999,7795,.14533E-3,.1642E-4,0
STARLINK-32923,2025-037W,2026-07-16T15:46:35.923872,14.98331026,.0002407,70.0011,29.1404,263.4499,96.6386,0,U,63097,999,7792,.7751E-4,.832E-5,0
STARLINK-32913,2025-037X,2026-07-16T22:29:11.037984,14.98339041,.0002943,70.0007,28.5029,270.3564,89.7257,0,U,63098,999,7797,.20952E-3,.2408E-4,0
STARLINK-11629 [DTC],2025-039A,2026-07-16T23:45:12.456000,15.70920350,.0001549,43.0005,177.2324,266.3510,93.7180,0,U,63104,999,7995,.72397E-3,.93819E-3,0
STARLINK-11624 [DTC],2025-039B,2026-07-16T08:00:31.631616,15.70848189,.0002006,43.0020,181.7982,264.0288,96.0351,0,U,63105,999,7984,.72169E-3,.93234E-3,0
STARLINK-11584 [DTC],2025-039C,2026-07-16T23:14:48.598656,15.70932296,.0000434,42.9973,177.9585,199.4333,160.6518,0,U,63106,999,7994,.10148E-2,.132367E-2,0
STARLINK-11627 [DTC],2025-039D,2026-07-16T08:44:54.345696,15.70827232,.0001069,43.0014,181.1501,285.5350,74.5400,0,U,63107,999,7985,.94838E-3,.12299E-2,0
STARLINK-11632 [DTC],2025-039E,2026-07-16T22:51:52.663968,15.70845180,.000116,43.0001,177.8278,246.2363,113.8383,0,U,63108,999,7994,.89764E-3,.116381E-2,0
STARLINK-11625 [DTC],2025-039F,2026-07-16T07:43:55.362720,15.70841853,.0001899,43.0008,181.7018,262.4251,97.6401,0,U,63109,999,7984,.87077E-3,.112822E-2,0
STARLINK-11601 [DTC],2025-039G,2026-07-16T22:36:34.932672,15.70910542,.0003833,43.0019,177.7424,277.8770,82.1662,0,U,63110,999,7994,.81042E-3,.105205E-2,0
