[ {"name": "STARLINK-33605", "line1": "1 63074U 25035Y   26198.16664035  .00011810  00000+0  43797-3 0  9995", "line2": "2 63074  43.0011 135.6740 0001602 268.4718  91.5950 15.27582345 79526"}, {"name": "STARLINK-32839", "line1": "1 63077U 25037A   26197.69509747  .00002502  00000+0  21738-3 0  9994", "line2": "2 63077  70.0013  29.2760 0002743 266.5021  93.5824 14.98337414 77919"}, {"name": "STARLINK-32821", "line1": "1 63078U 25037B   26197.69492396  .00002361  00000+0  20556-3 0  9996", "line2": "2 63078  70.0013  29.2721 0002518 269.8008  90.2862 14.98335088 77908"}, {"name": "STARLINK-32817", "line1": "1 63079U 25037C   26197.86598483  .00001486  00000+0  13227-3 0  9994", "line2": "2 63079  70.0008  28.6603 0002802 267.5099  92.5740 14.98332071 77949"}, {"name": "STARLINK-32906", "line1": "1 63080U 25037D   26197.97882743  .00001461  00000+0  13021-3 0  9998", "line2": "2 63080  70.0008  28.6528 0001720 257.9629 102.1337 14.98335189 77962"}, {"name": "STARLINK-32895", "line1": "1 63081U 25037E   26197.97448606  .00001853  00000+0  16300-3 0  9993", "line2": "2 63081  70.0010  28.6438 0002745 269.0806  91.0039 14.98335249 77822"}, {"name": "STARLINK-32933", "line1": "1 63082U 25037F   26197.88285713  .00001911  00000+0  16789-3 0  9998", "line2": "2 63082  70.0011  28.7184 0002833 264.7298  95.3537 14.98330101 77897"}, {"name": "STARLINK-32932", "line1": "1 63083U 25037G   26198.15389796  .00002422  00000+0  21064-3 0  9996", "line2": "2 63083  70.0007  28.0657 0003249 266.2521  93.8266 14.98343503 77857"}, {"name": "STARLINK-32908", "line1": "1 63084U 25037H   26197.67822981  .00001812  00000+0  15962-3 0  9993", "line2": "2 63084  70.0010  29.2104 0002654 264.2498  95.8358 14.98332912 77780"}, {"name": "STARLINK-32505", "line1": "1 63085U 25037J   26197.97465188  .00001842  00000+0  16214-3 0  9993", "line2": "2 63085  70.0005  28.6398 0002549 264.7135  95.3733 14.98335044 77915"}, {"name": "STARLINK-32914", "line1": "1 63086U 25037K   26197.88268222  .00001546  00000+0  13735-3 0  9990", "line2": "2 63086  70.0009  28.7178 0002550 267.2972  92.7896 14.98333287 77958"}, {"name": "STARLINK-32918", "line1": "1 63087U 25037L   26197.69908896 -.00000063  00000+0  24721-5 0  9991", "line2": "2 63087  70.0013  29.2854 0002312 275.2750  84.8145 14.98335673 78018"}, {"name": "STARLINK-32912", "line1": "1 63088U 25037M   26197.72011041  .00000997  00000+0  91325-4 0  9991", "line2": "2 63088  70.0010  28.9598 0002346 259.7991 100.2903 14.98331183 78037"}, {"name": "STARLINK-32910", "line1": "1 63089U 25037N   26197.68674090  .00001418  00000+0  12660-3 0  9999", "line2": "2 63089  70.0009  29.2384 0002836 263.1609  96.9228 14.98339007 77923"}, {"name": "STARLINK-32903", "line1": "1 63090U 25037P   26197.98280697  .00001547  00000+0  13739-3 0  9991", "line2": "2 63090  70.0008  28.2731 0002244 267.9356  92.1546 14.98334772 77838"}, {"name": "STARLINK-32925", "line1": "1 63091U 25037Q   26197.98698304  .00001369  00000+0  12247-3 0  9995", "line2": "2 63091  70.0009  28.2828 0002588 261.4110  98.6756 14.98332649 77919"}, {"name": "STARLINK-32924", "line1": "1 63092U 25037R   26197.72829299  .00001320  00000+0  11838-3 0  9999", "line2": "2 63092  70.0010  28.9875 0002259 264.3648  95.7254 14.98330899 77932"}, {"name": "STARLINK-32900", "line1": "1 63093U 25037S   26197.94109205  .00001938  00000+0  17013-3 0  9998", "line2": "2 63093  70.0009  28.5241 0003057 265.4103  94.6707 14.98334003 77829"}, {"name": "STARLINK-32927", "line1": "1 63094U 25037T   26197.70327013  .00000909  00000+0  83915-4 0  9994", "line2": "2 63094  70.0015  29.3054 0003407 270.3646  89.7122 14.98340875 77879"}, {"name": "STARLINK-32907", "line1": "1 63095U 25037U   26197.69075058 -.00001689  00000+0 -13381-3 0  9999", "line2": "2 63095  69.9994  29.2539 0003052 272.2511  87.8299 14.98334449 77872"}, {"name": "STARLINK-32911", "line1": "1 63096U 25037V   26197.97866091  .00001642  00000+0  14533-3 0  9993", "line2": "2 63096  70.0009  28.6533 0001526 270.5410  89.5574 14.98334679 77952"}, {"name": "STARLINK-32923", "line1": "1 63097U 25037W   26197.65736023  .00000832  00000+0  77510-4 0  9995", "line2": "2 63097  70.0011  29.1404 0002407 263.4499  96.6386 14.98331026 77926"}, {"name": "STARLINK-32913", "line1": "1 63098U 25037X   26197.93693331  .00002408  00000+0  20952-3 0  9999", "line2": "2 63098  70.0007  28.5029 0002943 270.3564  89.7257 14.98339041 77973"}, {"name": "STARLINK-11629 [DTC]", "line1": "1 63104U 25039A   26197.98972750  .00093819  00000+0  72397-3 0  9995", "line2": "2 63104  43.0005 177.2324 0001549 266.3510  93.7180 15.70920350 79956"}, {"name": "STARLINK-11624 [DTC]", "line1": "1 63105U 25039B   26197.33369944  .00093234  00000+0  72169-3 0  9998", "line2": "2 63105  43.0020 181.7982 0002006 264.0288  96.0351 15.70848189 79843"}, {"name": "STARLINK-11584 [DTC]", "line1": "1 63106U 25039C   26197.96861804  .00132367  00000+0  10148-2 0  9999", "line2": "2 63106  42.9973 177.9585 0000434 199.4333 160.6518 15.70932296 79947"}, {"name": "STARLINK-11627 [DTC]", "line1": "1 63107U 25039D   26197.36451789  .00122990  00000+0  94838-3 0  9991", "line2": "2 63107  43.0014 181.1501 0001069 285.5350  74.5400 15.70827232 79858"}, {"name": "STARLINK-11632 [DTC]", "line1": "1 63108U 25039E   26197.95269287  .00116381  00000+0  89764-3 0  9996", "line2": "2 63108  43.0001 177.8278 0001160 246.2363 113.8383 15.70845180 79947"}, {"name": "STARLINK-11625 [DTC]", "line1": "1 63109U 25039F   26197.32216855  .00112822  00000+0  87077-3 0  9992", "line2": "2 63109  43.0008 181.7018 0001899 262.4251  97.6401 15.70841853 79848"}, {"name": "STARLINK-11601 [DTC]", "line1": "1 63110U 25039G   26197.94207098  .00105205  00000+0  81042-3 0  9994", "line2": "2 63110  43.0019 177.7424 0003833 277.8770  82.1662 15.70910542 79945"}]